[{"OBJECT_NAME":"STARLINK-4782","OBJECT_ID":"2022-119AZ","EPOCH":"2026-03-09T22:21:07.305984","MEAN_MOTION":15.08834656,"ECCENTRICITY":0.00013913,"INCLINATION":53.2173,"RA_OF_ASC_NODE":302.8926,"ARG_OF_PERICENTER":92.1273,"MEAN_ANOMALY":267.9878,"EPHEMERIS_TYPE":0,"CLASSIFICATION_TYPE":"U","NORAD_CAT_ID":53933,"ELEMENT_SET_NO":999,"REV_AT_EPOCH":19200,"BSTAR":0.00019607296,"MEAN_MOTION_DOT":2.834e-5,"MEAN_MOTION_DDOT":0},{"OBJECT_NAME":"PEGASUS DEB","OBJECT_ID":"1994-029KL","EPOCH":"2026-03-09T21:20:10.241088","MEAN_MOTION":13.96859935,"ECCENTRICITY":0.05133126,"INCLINATION":81.4593,"RA_OF_ASC_NODE":238.2872,"ARG_OF_PERICENTER":338.9836,"MEAN_ANOMALY":19.0885,"EPHEMERIS_TYPE":0,"CLASSIFICATION_TYPE":"U","NORAD_CAT_ID":24213,"ELEMENT_SET_NO":999,"REV_AT_EPOCH":14823,"BSTAR":0.00070532339,"MEAN_MOTION_DOT":3.072e-5,"MEAN_MOTION_DDOT":0}]
